{
  "type": "FeatureCollection",
  "features": [
    {
      "type": "Feature",
      "properties": {
        "norad_id": 63772,
        "name": "BIOMASS",
        "group": "resource",
        "lat": 29.563570866656363,
        "lon": 159.08941784008783,
        "alt_km": 666.9189050224049,
        "timestamp": "2025-12-04T13:52:00.106073+00:00",
        "meta_object_name": "BIOMASS",
        "meta_object_id": "2025-090A",
        "meta_epoch": "2025-12-04T05:32:56.779008",
        "meta_mean_motion": 14.67541483,
        "meta_eccentricity": 0.00012268,
        "meta_inclination": 98.0707,
        "meta_ra_of_asc_node": 163.3646,
        "meta_arg_of_pericenter": 81.4266,
        "meta_mean_anomaly": 278.7078,
        "meta_ephemeris_type": 0,
        "meta_classification_type": "U",
        "meta_norad_cat_id": 63772,
        "meta_element_set_no": 999,
        "meta_rev_at_epoch": 3209,
        "meta_bstar": 0.00047517219,
        "meta_mean_motion_dot": 2.648e-05,
        "meta_mean_motion_ddot": 0,
        "tle_line1": "1 63772U 25090A   25338.23121272  .00002648  00000+0  47517-3 0  9998",
        "tle_line2": "2 63772  98.0707 163.3646 0001226  81.4266 278.7078 14.67541483 32091"
      },
      "geometry": {
        "type": "Point",
        "coordinates": [
          159.08941784008783,
          29.563570866656363
        ]
      }
    },
    {
      "type": "Feature",
      "properties": {
        "norad_id": 64694,
        "name": "GOSAT-GW (IBUKI GW)",
        "group": "resource",
        "lat": -58.04397935008565,
        "lon": 81.14110467965581,
        "alt_km": 676.9148229062466,
        "timestamp": "2025-12-04T13:52:00.106083+00:00",
        "meta_object_name": "GOSAT-GW (IBUKI GW)",
        "meta_object_id": "2025-141A",
        "meta_epoch": "2025-11-30T05:41:32.267328",
        "meta_mean_motion": 14.67567435,
        "meta_eccentricity": 0.00014369,
        "meta_inclination": 98.0401,
        "meta_ra_of_asc_node": 269.9775,
        "meta_arg_of_pericenter": 82.921,
        "meta_mean_anomaly": 277.2158,
        "meta_ephemeris_type": 0,
        "meta_classification_type": "U",
        "meta_norad_cat_id": 64694,
        "meta_element_set_no": 999,
        "meta_rev_at_epoch": 2266,
        "meta_bstar": 0.00019762357,
        "meta_mean_motion_dot": 1.074e-05,
        "meta_mean_motion_ddot": 0,
        "tle_line1": "1 64694U 25141A   25334.23717902  .00001074  00000+0  19762-3 0  9999",
        "tle_line2": "2 64694  98.0401 269.9775 0001436  82.9210 277.2158 14.67567435 22660"
      },
      "geometry": {
        "type": "Point",
        "coordinates": [
          81.14110467965581,
          -58.04397935008565
        ]
      }
    },
    {
      "type": "Feature",
      "properties": {
        "norad_id": 64876,
        "name": "IONOSFERA-M 3",
        "group": "resource",
        "lat": 25.315733310550925,
        "lon": 124.76934619782232,
        "alt_km": 819.4106359434718,
        "timestamp": "2025-12-04T13:52:00.106093+00:00",
        "meta_object_name": "IONOSFERA-M 3",
        "meta_object_id": "2025-155A",
        "meta_epoch": "2025-12-04T08:04:31.293120",
        "meta_mean_motion": 14.214379,
        "meta_eccentricity": 0.0002383,
        "meta_inclination": 98.5771,
        "meta_ra_of_asc_node": 300.441,
        "meta_arg_of_pericenter": 73.2184,
        "meta_mean_anomaly": 286.9255,
        "meta_ephemeris_type": 0,
        "meta_classification_type": "U",
        "meta_norad_cat_id": 64876,
        "meta_element_set_no": 999,
        "meta_rev_at_epoch": 1872,
        "meta_bstar": 0.00010171626,
        "meta_mean_motion_dot": 1.8e-06,
        "meta_mean_motion_ddot": 0,
        "tle_line1": "1 64876U 25155A   25338.33647330  .00000180  00000+0  10172-3 0  9991",
        "tle_line2": "2 64876  98.5771 300.4410 0002383  73.2184 286.9255 14.21437900 18729"
      },
      "geometry": {
        "type": "Point",
        "coordinates": [
          124.76934619782232,
          25.315733310550925
        ]
      }
    },
    {
      "type": "Feature",
      "properties": {
        "norad_id": 64877,
        "name": "IONOSFERA-M 4",
        "group": "resource",
        "lat": -24.956146418558223,
        "lon": -55.37747817814308,
        "alt_km": 826.1657062035456,
        "timestamp": "2025-12-04T13:52:00.106104+00:00",
        "meta_object_name": "IONOSFERA-M 4",
        "meta_object_id": "2025-155B",
        "meta_epoch": "2025-12-04T07:13:39.747936",
        "meta_mean_motion": 14.2143892,
        "meta_eccentricity": 0.00017381,
        "meta_inclination": 98.577,
        "meta_ra_of_asc_node": 300.3263,
        "meta_arg_of_pericenter": 72.1498,
        "meta_mean_anomaly": 287.9869,
        "meta_ephemeris_type": 0,
        "meta_classification_type": "U",
        "meta_norad_cat_id": 64877,
        "meta_element_set_no": 999,
        "meta_rev_at_epoch": 1871,
        "meta_bstar": 0.00010248447,
        "meta_mean_motion_dot": 1.81e-06,
        "meta_mean_motion_ddot": 0,
        "tle_line1": "1 64877U 25155B   25338.30115449  .00000181  00000+0  10248-3 0  9995",
        "tle_line2": "2 64877  98.5770 300.3263 0001738  72.1498 287.9869 14.21438920 18717"
      },
      "geometry": {
        "type": "Point",
        "coordinates": [
          -55.37747817814308,
          -24.956146418558223
        ]
      }
    },
    {
      "type": "Feature",
      "properties": {
        "norad_id": 64899,
        "name": "MICROCARB",
        "group": "resource",
        "lat": 80.40782209267834,
        "lon": -2.3058515931308454,
        "alt_km": 646.1981186206103,
        "timestamp": "2025-12-04T13:52:00.106114+00:00",
        "meta_object_name": "MICROCARB",
        "meta_object_id": "2025-156A",
        "meta_epoch": "2025-12-04T05:19:32.674944",
        "meta_mean_motion": 14.72036215,
        "meta_eccentricity": 0.00165667,
        "meta_inclination": 98.0034,
        "meta_ra_of_asc_node": 53.7037,
        "meta_arg_of_pericenter": 171.1964,
        "meta_mean_anomaly": 188.9537,
        "meta_ephemeris_type": 0,
        "meta_classification_type": "U",
        "meta_norad_cat_id": 64899,
        "meta_element_set_no": 999,
        "meta_rev_at_epoch": 1928,
        "meta_bstar": 0.00025592321,
        "meta_mean_motion_dot": 1.561e-05,
        "meta_mean_motion_ddot": 0,
        "tle_line1": "1 64899U 25156A   25338.22190596  .00001561  00000+0  25592-3 0  9998",
        "tle_line2": "2 64899  98.0034  53.7037 0016566 171.1964 188.9537 14.72036215 19282"
      },
      "geometry": {
        "type": "Point",
        "coordinates": [
          -2.3058515931308454,
          80.40782209267834
        ]
      }
    },
    {
      "type": "Feature",
      "properties": {
        "norad_id": 64900,
        "name": "CO3D 3",
        "group": "resource",
        "lat": 25.559561703193943,
        "lon": -121.3570363107105,
        "alt_km": 503.52994131145533,
        "timestamp": "2025-12-04T13:52:00.106125+00:00",
        "meta_object_name": "CO3D 3",
        "meta_object_id": "2025-156B",
        "meta_epoch": "2025-12-02T23:16:40.108224",
        "meta_mean_motion": 15.2021179,
        "meta_eccentricity": 0.00013753,
        "meta_inclination": 97.4352,
        "meta_ra_of_asc_node": 53.4771,
        "meta_arg_of_pericenter": 132.9697,
        "meta_mean_anomaly": 227.1654,
        "meta_ephemeris_type": 0,
        "meta_classification_type": "U",
        "meta_norad_cat_id": 64900,
        "meta_element_set_no": 999,
        "meta_rev_at_epoch": 1972,
        "meta_bstar": 0.00042667501,
        "meta_mean_motion_dot": 9.183e-05,
        "meta_mean_motion_ddot": 0,
        "tle_line1": "1 64900U 25156B   25336.96990866  .00009183  00000+0  42668-3 0  9999",
        "tle_line2": "2 64900  97.4352  53.4771 0001375 132.9697 227.1654 15.20211790 19725"
      },
      "geometry": {
        "type": "Point",
        "coordinates": [
          -121.3570363107105,
          25.559561703193943
        ]
      }
    },
    {
      "type": "Feature",
      "properties": {
        "norad_id": 64901,
        "name": "CO3D 4",
        "group": "resource",
        "lat": 26.541813016021514,
        "lon": -121.19716037730545,
        "alt_km": 504.128961140751,
        "timestamp": "2025-12-04T13:52:00.106141+00:00",
        "meta_object_name": "CO3D 4",
        "meta_object_id": "2025-156C",
        "meta_epoch": "2025-12-01T18:50:45.474720",
        "meta_mean_motion": 15.20204195,
        "meta_eccentricity": 0.00012108,
        "meta_inclination": 97.4354,
        "meta_ra_of_asc_node": 52.3098,
        "meta_arg_of_pericenter": 238.3057,
        "meta_mean_anomaly": 121.806,
        "meta_ephemeris_type": 0,
        "meta_classification_type": "U",
        "meta_norad_cat_id": 64901,
        "meta_element_set_no": 999,
        "meta_rev_at_epoch": 1954,
        "meta_bstar": -1.4420799e-05,
        "meta_mean_motion_dot": -3.8e-06,
        "meta_mean_motion_ddot": 0,
        "tle_line1": "1 64901U 25156C   25335.78524855 -.00000380  00000+0 -14421-4 0  9999",
        "tle_line2": "2 64901  97.4354  52.3098 0001210 238.3057 121.8060 15.20204195 19549"
      },
      "geometry": {
        "type": "Point",
        "coordinates": [
          -121.19716037730545,
          26.541813016021514
        ]
      }
    }
  ]
}